[{"OBJECT_NAME":"STARLINK-32455","OBJECT_ID":"2024-191M","EPOCH":"2026-03-09T22:55:41.548800","MEAN_MOTION":15.27577029,"ECCENTRICITY":0.00012966,"INCLINATION":43.0034,"RA_OF_ASC_NODE":156.7658,"ARG_OF_PERICENTER":266.1297,"MEAN_ANOMALY":93.9406,"EPHEMERIS_TYPE":0,"CLASSIFICATION_TYPE":"U","NORAD_CAT_ID":61632,"ELEMENT_SET_NO":999,"REV_AT_EPOCH":7753,"BSTAR":-2.23598e-7,"MEAN_MOTION_DOT":-2.68e-6,"MEAN_MOTION_DDOT":0},{"OBJECT_NAME":"DMSP 5D-2 F13 DEB","OBJECT_ID":"1995-015HL","EPOCH":"2026-02-09T02:06:19.247328","MEAN_MOTION":15.12822218,"ECCENTRICITY":0.00117732,"INCLINATION":98.8603,"RA_OF_ASC_NODE":96.8879,"ARG_OF_PERICENTER":223.037,"MEAN_ANOMALY":136.9936,"EPHEMERIS_TYPE":0,"CLASSIFICATION_TYPE":"U","NORAD_CAT_ID":42294,"ELEMENT_SET_NO":999,"REV_AT_EPOCH":55633,"BSTAR":0.010466292,"MEAN_MOTION_DOT":0.00188804,"MEAN_MOTION_DDOT":0}]
